GSAT0101 (GALILEO-PFM)  
1 37846U 11060A   25365.08501047 -.00000075  00000+0  00000+0 0  9993
2 37846  57.0484 346.3225 0003399 324.8931  35.0863  1.70475470 88250
GSAT0102 (GALILEO-FM2)  
1 37847U 11060B   25365.23719016 -.00000076  00000+0  00000+0 0  9999
2 37847  57.0491 346.3187 0005300 316.2700 182.5857  1.70475678 88261
GSAT0103 (GALILEO-FM3)  
1 38857U 12055A   26001.29838235 -.00000022  00000+0  00000+0 0  9996
2 38857  55.7028 106.1292 0003054 271.3657  88.5772  1.70473256 82163
GSAT0201 (GALILEO 5)    
1 40128U 14050A   25364.17536940 -.00000047  00000+0  00000+0 0  9990
2 40128  49.0564 280.3524 1649686 172.9387 189.7600  1.85519590 75181
GSAT0202 (GALILEO 6)    
1 40129U 14050B   25364.97054554 -.00000042  00000+0  00000+0 0  9990
2 40129  49.0716 279.4036 1650322 173.6988 188.7200  1.85520277 77363
GSAT0203 (GALILEO 7)    
1 40544U 15017A   25364.27649008 -.00000072  00000+0  00000+0 0  9995
2 40544  56.8420 346.2020 0006447 276.7504  83.1807  1.70475741 66323
GSAT0204 (GALILEO 8)    
1 40545U 15017B   25365.11858706 -.00000076  00000+0  00000+0 0  9991
2 40545  56.8482 346.1968 0006036 269.4263  90.5059  1.70475230 29386
GSAT0205 (GALILEO 9)    
1 40889U 15045A   26001.06035558  .00000081  00000+0  00000+0 0  9992
2 40889  54.9977 226.2236 0006478  46.0914 314.0586  1.70472970 64165
GSAT0206 (GALILEO 10)   
1 40890U 15045B   25363.93462572  .00000080  00000+0  00000+0 0  9999
2 40890  54.9972 226.2776 0004198  43.0053 317.1185  1.70473123 64158
GSAT0209 (GALILEO 12)   
1 41174U 15079A   25361.16975374  .00000015  00000+0  00000+0 0  9992
2 41174  55.7206 105.9849 0002673 340.8041  19.1801  1.70474435 61842
GSAT0208 (GALILEO 11)   
1 41175U 15079B   25363.73623933 -.00000004  00000+0  00000+0 0  9998
2 41175  55.7206 105.9114 0002304 336.0843  23.8889  1.70474094 62307
GSAT0211 (GALILEO 14)   
1 41549U 16030A   25363.86038107  .00000080  00000+0  00000+0 0  9991
2 41549  55.1469 226.3518 0004035  18.0988 342.0065  1.70473164 59780
GSAT0210 (GALILEO 13)   
1 41550U 16030B   25363.53117979  .00000079  00000+0  00000+0 0  9990
2 41550  55.1465 226.3589 0000580 179.1921 180.8976  1.70473477 59778
GSAT0207 (GALILEO 15)   
1 41859U 16069A   25364.98252734 -.00000015  00000+0  00000+0 0  9994
2 41859  55.3922 105.7449 0002920 312.4108  47.5439  1.70474331 56538
GSAT0212 (GALILEO 16)   
1 41860U 16069B   25364.83616606 -.00000014  00000+0  00000+0 0  9991
2 41860  55.3898 105.7443 0002078  14.8770 345.1088  1.70474621 56784
GSAT0213 (GALILEO 17)   
1 41861U 16069C   25365.20369764 -.00000017  00000+0  00000+0 0  9997
2 41861  55.3927 105.7417 0002859 283.4707  76.4763  1.70474870 56656
GSAT0214 (GALILEO 18)   
1 41862U 16069D   25365.34971086 -.00000018  00000+0  00000+0 0  9990
2 41862  55.3910 105.7306 0002060 286.4215  73.5345  1.70474778 56782
GSAT0215 (GALILEO 19)   
1 43055U 17079A   25364.66679520  .00000082  00000+0  00000+0 0  9990
2 43055  55.1244 226.1436 0001156 352.9815   7.1104  1.70473940 50115
GSAT0216 (GALILEO 20)   
1 43056U 17079B   26001.13124205  .00000082  00000+0  00000+0 0  9997
2 43056  55.1245 226.1031 0002174 328.7228  31.3608  1.70474053 50156
GSAT0217 (GALILEO 21)   
1 43057U 17079C   25364.00569035  .00000080  00000+0  00000+0 0  9997
2 43057  55.1229 226.1601 0003088  30.6866 329.4227  1.70473409 50101
GSAT0218 (GALILEO 22)   
1 43058U 17079D   25365.39887233  .00000083  00000+0  00000+0 0  9997
2 43058  55.1227 226.1190 0001936 332.2921  27.7931  1.70473905 50152
GSAT0221 (GALILEO 25)   
1 43564U 18060A   25362.95513955 -.00000065  00000+0  00000+0 0  9997
2 43564  57.2239 346.3798 0006731 287.8223  72.1123  1.70475537 46264
GSAT0222 (GALILEO 26)   
1 43565U 18060B   25364.34767166 -.00000071  00000+0  00000+0 0  9995
2 43565  57.2271 346.3452 0005989 269.0932  90.8426  1.70475244 46337
GSAT0219 (GALILEO 23)   
1 43566U 18060C   25365.15537660 -.00000075  00000+0  00000+0 0  9994
2 43566  57.2261 346.3249 0005911 292.7910  67.1478  1.70475422 46326
GSAT0220 (GALILEO 24)   
1 43567U 18060D   25364.20313701 -.00000070  00000+0  00000+0 0  9993
2 43567  57.2260 346.3513 0006229 289.1848  70.7526  1.70475238 46298
GSAT0223 (GALILEO 27)   
1 49809U 21116A   26001.11286148 -.00000080  00000+0  00000+0 0  9998
2 49809  57.2147 346.1898 0004373 260.2203 282.5125  1.70475295 25337
GSAT0224 (GALILEO 28)   
1 49810U 21116B   26001.21016905 -.00000080  00000+0  00000+0 0  9993
2 49810  57.2157 346.1857 0003735 265.8116  89.2366  1.70475325 25355
GSAT0225 (GALILEO 29)   
1 59598U 24079A   26001.23490354 -.00000023  00000+0  00000+0 0  9991
2 59598  55.0125 105.7499 0002169 220.3809 142.4128  1.70474416 10471
GSAT0227 (GALILEO 30)   
1 59600U 24079C   25364.65398144 -.00000013  00000+0  00000+0 0  9995
2 59600  55.0068 105.7930 0002078 121.1900 238.8104  1.70474651 10497
GSAT0232 (GALILEO 32)   
1 61182U 24167A   25363.31340485  .00000079  00000+0  00000+0 0  9999
2 61182  55.2360 225.9758 0001878 195.6650 256.0538  1.70473329  7984
GSAT0226 (GALILEO 31)   
1 61183U 24167B   25365.92302897  .00000083  00000+0  00000+0 0  9999
2 61183  55.2340 225.9092 0001415 110.3959 255.5692  1.70473383  8006
GALILEO A               
1 67160U 25302A   25352.14605887 -.00000007  00000+0  00000+0 0  9994
2 67160  54.2406 107.2544 0008423 237.6458 122.2317  1.72906186    28
GALILEO B               
1 67161U 25302B   25365.44232658 -.00000018  00000+0  00000+0 0  9996
2 67161  54.2329 106.8331 0006490 266.0500  93.8527  1.72971438   262
